VENESAT-1               
1 33414U 08055A   17345.31101253 -.00000244  00000-0  00000-0 0  9990
2 33414   0.0152 248.5559 0003969  22.3424 203.2581  1.00268882 33504
